[{"OBJECT_NAME":"STARLINK-31206","OBJECT_ID":"2024-038F","EPOCH":"2026-03-09T09:54:57.307392","MEAN_MOTION":15.2757484,"ECCENTRICITY":4.644e-5,"INCLINATION":42.9983,"RA_OF_ASC_NODE":323.5845,"ARG_OF_PERICENTER":349.5799,"MEAN_ANOMALY":10.5043,"EPHEMERIS_TYPE":0,"CLASSIFICATION_TYPE":"U","NORAD_CAT_ID":59028,"ELEMENT_SET_NO":999,"REV_AT_EPOCH":11548,"BSTAR":-1.4306972e-5,"MEAN_MOTION_DOT":-6.55e-6,"MEAN_MOTION_DDOT":0},{"OBJECT_NAME":"COSMOS 2251 DEB","OBJECT_ID":"1993-036RB","EPOCH":"2026-03-09T01:08:04.800192","MEAN_MOTION":15.30699894,"ECCENTRICITY":0.00252965,"INCLINATION":73.7308,"RA_OF_ASC_NODE":76.2904,"ARG_OF_PERICENTER":263.9966,"MEAN_ANOMALY":95.8352,"EPHEMERIS_TYPE":0,"CLASSIFICATION_TYPE":"U","NORAD_CAT_ID":34410,"ELEMENT_SET_NO":999,"REV_AT_EPOCH":91089,"BSTAR":0.003018315,"MEAN_MOTION_DOT":0.00091531,"MEAN_MOTION_DDOT":0}]
